GLOBALSTAR M045         
1 25676U 99019A   24311.89335201 -.00000035  00000+0  51688-3 0  9995
2 25676  51.9967 218.8491 0001010  81.0699  13.6901 12.27048946166100
GLOBALSTAR M019         
1 25677U 99019B   24311.80044385 -.00000038  00000+0  54110-3 0  9993
2 25677  51.9901 333.8319 0000892 222.8675 308.4395 12.13869340158132
GLOBALSTAR M042         
1 25679U 99019D   24311.78389944 -.00000019  00000+0  68999-3 0  9994
2 25679  52.0025 318.8003 0002675 195.3587 336.3489 12.22072758158068
GLOBALSTAR M025         
1 25770U 99031A   24311.72002200 -.00000034  00000+0  10270-2 0  9996
2 25770  51.9831 314.6335 0001449 123.5133  48.4948 11.22555949456725
GLOBALSTAR M049         
1 25771U 99031B   24311.80136846  .00000018  00000+0  28790-2 0  9997
2 25771  51.9901 338.0317 0003163   6.8249 353.2590 11.12113433 92688
GLOBALSTAR M047         
1 25772U 99031C   24311.79039175 -.00000045  00000+0  68677-3 0  9993
2 25772  51.9870 356.2734 0016261 240.1603 119.7587 11.31924774445928
GLOBALSTAR M052         
1 25773U 99031D   24311.71852693 -.00000069  00000+0 -97551-4 0  9995
2 25773  51.9849  90.0185 0003236 148.0726 225.8902 11.15055500453695
